[
  {
    "nombre": "ATLAS AGENA D R/B",
    "pais": "UNITED STATES OF AMERICA",
    "tamano_caida_kg": null,
    "material_principal": null,
    "fecha": "2011-01-18",
    "inclinacion_orbita": 47.5,
    "lugar_caida": {
      "lat": 45.0,
      "lon": -87.0
    },
    "imagen": null,
    "tle1": "1 03145U 68014B   11018.33679383 -.00007350 +60653-5 +00000-0 0  9996",
    "tle2": "2 03145 047.9216 051.8690 9174194 109.4430 352.9566 00.38858306057648",
    "a": 79325.511,
    "apogeo": 145722.138,
    "perigeo": 172.613,
    "dias_diferencia": 0.0
  },
  {
    "nombre": "METEOR 1-1",
    "pais": "COMMONWEALTH OF INDEPENDENT STATES",
    "tamano_caida_kg": null,
    "material_principal": null,
    "fecha": "2012-03-26",
    "inclinacion_orbita": 81.1,
    "lugar_caida": {
      "lat": 47.0,
      "lon": 95.0
    },
    "imagen": null,
    "tle1": "1 03835U 69029A   12086.76135367  .25198191 -97535-6  25232-3 0  9999",
    "tle2": "2 03835 081.1165 230.5329 0011418 263.0265 097.6822 16.50605120355155",
    "a": 6515.884,
    "apogeo": 145.189,
    "perigeo": 130.309,
    "dias_diferencia": -0.24
  },
  {
    "nombre": "DMSP 5D-2 F7 (USA 3)",
    "pais": "UNITED STATES OF AMERICA",
    "tamano_caida_kg": null,
    "material_principal": null,
    "fecha": "2017-12-04",
    "inclinacion_orbita": 98.8,
    "lugar_caida": {
      "lat": -16.0,
      "lon": 23.0
    },
    "imagen": "img/dsmp.jpg",
    "tle1": "1 15309U 83111A   17336.88373406  .00001090  00000+0  63636-4 0  9997",
    "tle2": "2 15309  98.7847 301.7613 0002164 259.9866  99.9880 14.28310058913926",
    "a": 7183.18,
    "apogeo": 850.198,
    "perigeo": 846.994,
    "dias_diferencia": -0.12
  },
  {
    "nombre": "COSMOS 1241",
    "pais": "RUSSIAN FEDERATION",
    "tamano_caida_kg": null,
    "material_principal": null,
    "fecha": "2013-08-01",
    "inclinacion_orbita": 74.0,
    "lugar_caida": {
      "lat": -10.0,
      "lon": 135.0
    },
    "imagen": null,
    "tle1": "1 12301U 81005A   13212.72297116 -.00000078  00000+0 -16652-4 0  9995",
    "tle2": "2 12301  74.0044 195.8450 0005708 262.1523  97.9009 15.17647209935105",
    "a": 6902.164,
    "apogeo": 529.281,
    "perigeo": 522.695,
    "dias_diferencia": 0.28
  },
  {
    "nombre": "NOAA 16",
    "pais": "UNITED STATES OF AMERICA",
    "tamano_caida_kg": null,
    "material_principal": null,
    "fecha": "2022-04-14",
    "inclinacion_orbita": 98.7,
    "lugar_caida": {
      "lat": -60.0,
      "lon": 16.0
    },
    "imagen": "img/NOAA_16.jpg",
    "tle1": "1 26411U 00063A   22104.99613149 -.00000003  00000+0  00000+0 0  9990",
    "tle2": "2 26411  98.7291 352.3482 0002030 197.6974 162.3168 14.19519541113695",
    "a": 7175.766,
    "apogeo": 839.467,
    "perigeo": 836.438,
    "dias_diferencia": 0.0
  },
  {
    "nombre": "ATLAS 2AS DEB",
    "pais": "UNITED STATES OF AMERICA",
    "tamano_caida_kg": null,
    "material_principal": null,
    "fecha": "2020-04-20",
    "inclinacion_orbita": 28.5,
    "lugar_caida": {
      "lat": -30.0,
      "lon": -156.0
    },
    "imagen": null,
    "tle1": "1 23605U 95020B   20111.45890731  .00000216  00000+0  22146-4 0  9998",
    "tle2": "2 23605  28.5085 277.8385 0000994 286.9157 236.4805 15.65759929 11956",
    "a": 6868.537,
    "apogeo": 491.53,
    "perigeo": 489.155,
    "dias_diferencia": 0.46
  }
]
